*******************************************************************************
Ephemeris / WWW_USER Mon Mar 24 11:42:59 2025 Pasadena, USA      / Horizons    
*******************************************************************************
Target body name: (2018 RP1)                      {source: JPL#4}
Center body name: Earth (399)                     {source: DE441}
Center-site name: Gemini South Obs., Cerro Pachon
*******************************************************************************
Start time      : A.D. 2018-Jul-31 22:18:00.0000 UT      
Stop  time      : A.D. 2018-Aug-01 11:20:00.0000 UT      
Step-size       : 1 minutes
*******************************************************************************
Target pole/equ : undefined
Target radii    : undefined                                                    
Center geodetic : 289.2634, -30.2406227, 2.71233  {E-lon(deg),Lat(deg),Alt(km)}
Center cylindric: 289.2634,5517.21435,-3194.81213 {E-lon(deg),Dxy(km),Dz(km)}
Center pole/equ : ITRF93                          {East-longitude positive}
Center radii    : 6378.137, 6378.137, 6356.752 km {Equator_a, b, pole_c}       
Target primary  : Sun
Vis. interferer : MOON (R_eq= 1737.400) km        {source: DE441}
Rel. light bend : Sun                             {source: DE441}
Rel. lght bnd GM: 1.3271E+11 km^3/s^2                                          
Small-body perts: Yes                             {source: SB441-N16}
Atmos refraction: NO (AIRLESS)
RA format       : HMS
Time format     : CAL 
Calendar mode   : Mixed Julian/Gregorian
RTS-only print  : NO       
EOP file        : eop.250321.p250617                                           
EOP coverage    : DATA-BASED 1962-JAN-20 TO 2025-MAR-21. PREDICTS-> 2025-JUN-16
Units conversion: 1 au= 149597870.700 km, c= 299792.458 km/s, 1 day= 86400.0 s 
Table cut-offs 1: Elevation (-90.0deg=NO ),Airmass (>38.000=NO), Daylight (YES)
Table cut-offs 2: Solar elongation (  0.0,180.0=NO ),Local Hour Angle( 0.0=NO )
Table cut-offs 3: RA/DEC angular rate (     0.0=NO )                           
*******************************************************************************
Initial IAU76/J2000 heliocentric ecliptic osculating elements (au, days, deg.):
  EPOCH=  2458376.5 ! 2018-Sep-15.00 (TDB)         Residual RMS= .12525        
   EC= .3382936082205208   QR= .9576766169446216   TP= 2458412.3293739939      
   OM= 161.903422202901    W=  234.5704247756858   IN= 9.466091569921099       
  Equivalent ICRF heliocentric cartesian coordinates (au, au/d):
   X= 1.017940821946709E+00  Y=-7.278189102440286E-02  Z=-7.249995171787897E-02
  VX=-1.754817228708964E-03 VY= 1.862872143473751E-02 VZ= 4.887370356508847E-03
Asteroid physical parameters (km, seconds, rotational period in hours):        
   GM= n.a.                RAD= n.a.               ROTPER= n.a.                
   H= 24.3                 G= .150                 B-V= n.a.                   
                           ALBEDO= n.a.            STYP= n.a.                  
*******************************************************************************
 Date__(UT)__HR:MN     R.A._________(ICRF)_________DEC
******************************************************
$$SOE
 2018-Aug-01 08:33  m  22 20 23.874848 +12 38 39.67096
 2018-Aug-01 08:34  m  22 20 23.941236 +12 38 39.98306
 2018-Aug-01 08:35  m  22 20 24.007645 +12 38 40.29504
 2018-Aug-01 08:36  m  22 20 24.074077 +12 38 40.60691
 2018-Aug-01 08:37  m  22 20 24.140532 +12 38 40.91865
 2018-Aug-01 08:38  m  22 20 24.207009 +12 38 41.23027
 2018-Aug-01 08:39  m  22 20 24.273509 +12 38 41.54177
 2018-Aug-01 08:40  m  22 20 24.340032 +12 38 41.85316
 2018-Aug-01 08:41  m  22 20 24.406577 +12 38 42.16443
 2018-Aug-01 08:42  m  22 20 24.473146 +12 38 42.47557
 2018-Aug-01 08:43  m  22 20 24.539739 +12 38 42.78660
 2018-Aug-01 08:44  m  22 20 24.606355 +12 38 43.09752
 2018-Aug-01 08:45  m  22 20 24.672994 +12 38 43.40831
 2018-Aug-01 08:46  m  22 20 24.739658 +12 38 43.71899
 2018-Aug-01 08:47  m  22 20 24.806345 +12 38 44.02955
 2018-Aug-01 08:48  m  22 20 24.873056 +12 38 44.34000
 2018-Aug-01 08:49  m  22 20 24.939791 +12 38 44.65033
 2018-Aug-01 08:50  m  22 20 25.006551 +12 38 44.96054
 2018-Aug-01 08:51  m  22 20 25.073335 +12 38 45.27064
 2018-Aug-01 08:52  m  22 20 25.140144 +12 38 45.58062
 2018-Aug-01 08:53  m  22 20 25.206978 +12 38 45.89049
 2018-Aug-01 08:54  m  22 20 25.273837 +12 38 46.20025
 2018-Aug-01 08:55  m  22 20 25.340720 +12 38 46.50989
 2018-Aug-01 08:56  m  22 20 25.407629 +12 38 46.81941
 2018-Aug-01 08:57  m  22 20 25.474563 +12 38 47.12882
 2018-Aug-01 08:58  m  22 20 25.541522 +12 38 47.43812
 2018-Aug-01 08:59  m  22 20 25.608507 +12 38 47.74731
 2018-Aug-01 09:00  m  22 20 25.675518 +12 38 48.05639
 2018-Aug-01 09:01  m  22 20 25.742554 +12 38 48.36535
 2018-Aug-01 09:02  m  22 20 25.809617 +12 38 48.67420
 2018-Aug-01 09:03  m  22 20 25.876706 +12 38 48.98294
 2018-Aug-01 09:04  m  22 20 25.943821 +12 38 49.29157
 2018-Aug-01 09:05  m  22 20 26.010962 +12 38 49.60008
 2018-Aug-01 09:06  m  22 20 26.078130 +12 38 49.90849
 2018-Aug-01 09:07  m  22 20 26.145324 +12 38 50.21679
 2018-Aug-01 09:08  m  22 20 26.212545 +12 38 50.52497
 2018-Aug-01 09:09  m  22 20 26.279793 +12 38 50.83305
 2018-Aug-01 09:10  m  22 20 26.347068 +12 38 51.14102
 2018-Aug-01 09:11  m  22 20 26.414371 +12 38 51.44888
 2018-Aug-01 09:12  m  22 20 26.481700 +12 38 51.75663
 2018-Aug-01 09:13  m  22 20 26.549057 +12 38 52.06428
 2018-Aug-01 09:14  m  22 20 26.616442 +12 38 52.37181
 2018-Aug-01 09:15  m  22 20 26.683854 +12 38 52.67924
 2018-Aug-01 09:16  m  22 20 26.751294 +12 38 52.98657
 2018-Aug-01 09:17  m  22 20 26.818762 +12 38 53.29378
 2018-Aug-01 09:18  m  22 20 26.886258 +12 38 53.60089
 2018-Aug-01 09:19  m  22 20 26.953783 +12 38 53.90789
 2018-Aug-01 09:20  m  22 20 27.021335 +12 38 54.21479
 2018-Aug-01 09:21  m  22 20 27.088916 +12 38 54.52159
 2018-Aug-01 09:22  m  22 20 27.156526 +12 38 54.82828
 2018-Aug-01 09:23  m  22 20 27.224164 +12 38 55.13486
 2018-Aug-01 09:24  m  22 20 27.291831 +12 38 55.44134
 2018-Aug-01 09:25  m  22 20 27.359527 +12 38 55.74772
 2018-Aug-01 09:26  m  22 20 27.427252 +12 38 56.05399
 2018-Aug-01 09:27  m  22 20 27.495007 +12 38 56.36016
 2018-Aug-01 09:28  m  22 20 27.562790 +12 38 56.66623
 2018-Aug-01 09:29  m  22 20 27.630603 +12 38 56.97220
 2018-Aug-01 09:30  m  22 20 27.698446 +12 38 57.27807
 2018-Aug-01 09:31  m  22 20 27.766318 +12 38 57.58383
 2018-Aug-01 09:32  m  22 20 27.834220 +12 38 57.88950
 2018-Aug-01 09:33  m  22 20 27.902152 +12 38 58.19506
 2018-Aug-01 09:34  m  22 20 27.970114 +12 38 58.50052
 2018-Aug-01 09:35  m  22 20 28.038106 +12 38 58.80589
 2018-Aug-01 09:36  m  22 20 28.106128 +12 38 59.11115
 2018-Aug-01 09:37  m  22 20 28.174181 +12 38 59.41632
 2018-Aug-01 09:38  m  22 20 28.242264 +12 38 59.72138
 2018-Aug-01 09:39  m  22 20 28.310378 +12 39 00.02635
 2018-Aug-01 09:40  m  22 20 28.378522 +12 39 00.33123
 2018-Aug-01 09:41  m  22 20 28.446698 +12 39 00.63600
 2018-Aug-01 09:42  m  22 20 28.514904 +12 39 00.94068
 2018-Aug-01 09:43  m  22 20 28.583141 +12 39 01.24526
 2018-Aug-01 09:44  m  22 20 28.651410 +12 39 01.54975
 2018-Aug-01 09:45  m  22 20 28.719710 +12 39 01.85414
 2018-Aug-01 09:46  m  22 20 28.788041 +12 39 02.15843
 2018-Aug-01 09:47  m  22 20 28.856404 +12 39 02.46263
 2018-Aug-01 09:48  m  22 20 28.924798 +12 39 02.76674
 2018-Aug-01 09:49  m  22 20 28.993224 +12 39 03.07075
 2018-Aug-01 09:50  m  22 20 29.061682 +12 39 03.37467
 2018-Aug-01 09:51  m  22 20 29.130172 +12 39 03.67849
 2018-Aug-01 09:52  m  22 20 29.198694 +12 39 03.98223
 2018-Aug-01 09:53  m  22 20 29.267248 +12 39 04.28587
 2018-Aug-01 09:54  m  22 20 29.335835 +12 39 04.58942
 2018-Aug-01 09:55  m  22 20 29.404454 +12 39 04.89288
 2018-Aug-01 09:56  m  22 20 29.473105 +12 39 05.19624
 2018-Aug-01 09:57  m  22 20 29.541789 +12 39 05.49952
 2018-Aug-01 09:58  m  22 20 29.610505 +12 39 05.80271
 2018-Aug-01 09:59  m  22 20 29.679255 +12 39 06.10580
 2018-Aug-01 10:00  m  22 20 29.748037 +12 39 06.40881
 2018-Aug-01 10:01  m  22 20 29.816852 +12 39 06.71173
 2018-Aug-01 10:02  m  22 20 29.885701 +12 39 07.01456
 2018-Aug-01 10:03  m  22 20 29.954582 +12 39 07.31730
 2018-Aug-01 10:04  m  22 20 30.023497 +12 39 07.61996
 2018-Aug-01 10:05  m  22 20 30.092446 +12 39 07.92253
 2018-Aug-01 10:06  m  22 20 30.161428 +12 39 08.22501
 2018-Aug-01 10:07 Am  22 20 30.230443 +12 39 08.52741
 2018-Aug-01 10:08 Am  22 20 30.299492 +12 39 08.82972
 2018-Aug-01 10:09 Am  22 20 30.368575 +12 39 09.13195
 2018-Aug-01 10:10 Am  22 20 30.437692 +12 39 09.43409
 2018-Aug-01 10:11 Am  22 20 30.506843 +12 39 09.73614
 2018-Aug-01 10:12 Am  22 20 30.576028 +12 39 10.03812
 2018-Aug-01 10:13 Am  22 20 30.645248 +12 39 10.34001
 2018-Aug-01 10:14 Am  22 20 30.714501 +12 39 10.64181
 2018-Aug-01 10:15 Am  22 20 30.783789 +12 39 10.94354
 2018-Aug-01 10:16 Am  22 20 30.853112 +12 39 11.24518
 2018-Aug-01 10:17 Am  22 20 30.922469 +12 39 11.54674
 2018-Aug-01 10:18 Am  22 20 30.991860 +12 39 11.84822
 2018-Aug-01 10:19 Am  22 20 31.061287 +12 39 12.14962
 2018-Aug-01 10:20 Am  22 20 31.130748 +12 39 12.45094
 2018-Aug-01 10:21 Am  22 20 31.200244 +12 39 12.75218
 2018-Aug-01 10:22 Am  22 20 31.269776 +12 39 13.05334
 2018-Aug-01 10:23 Am  22 20 31.339342 +12 39 13.35442
 2018-Aug-01 10:24 Am  22 20 31.408944 +12 39 13.65543
 2018-Aug-01 10:25 Am  22 20 31.478581 +12 39 13.95635
 2018-Aug-01 10:26 Am  22 20 31.548253 +12 39 14.25720
 2018-Aug-01 10:27 Am  22 20 31.617961 +12 39 14.55797
 2018-Aug-01 10:28 Am  22 20 31.687704 +12 39 14.85867
 2018-Aug-01 10:29 Am  22 20 31.757483 +12 39 15.15929
 2018-Aug-01 10:30 Am  22 20 31.827298 +12 39 15.45983
 2018-Aug-01 10:31 Am  22 20 31.897148 +12 39 15.76030
 2018-Aug-01 10:32 Am  22 20 31.967035 +12 39 16.06070
 2018-Aug-01 10:33 Am  22 20 32.036957 +12 39 16.36102
 2018-Aug-01 10:34 Am  22 20 32.106916 +12 39 16.66127
 2018-Aug-01 10:35 Nm  22 20 32.176910 +12 39 16.96144
